{"fetched_at":"2026-07-19T17:31:14.814Z","source":"https://celestrak.org/NORAD/elements/gp.php?GROUP=spire&FORMAT=JSON","constellation":"spire","records":[{"OBJECT_NAME":"LEMUR-2-HUBBLE-4","OBJECT_ID":"2025-135AP","EPOCH":"2026-07-19T07:04:09.101856","CLASSIFICATION_TYPE":"U","MEAN_MOTION":14.93691716,"ECCENTRICITY":0.00029862,"INCLINATION":97.7722,"RA_OF_ASC_NODE":313.8301,"ARG_OF_PERICENTER":152.5532,"MEAN_ANOMALY":207.5846,"EPHEMERIS_TYPE":0,"NORAD_CAT_ID":64565,"ELEMENT_SET_NO":999,"REV_AT_EPOCH":5866,"BSTAR":0.00004362507,"MEAN_MOTION_DOT":0.00000405,"MEAN_MOTION_DDOT":0},{"OBJECT_NAME":"LEMUR-2-SEJONG-2","OBJECT_ID":"2025-135BL","EPOCH":"2026-07-19T06:12:57.314880","CLASSIFICATION_TYPE":"U","MEAN_MOTION":14.96930617,"ECCENTRICITY":0.00042174,"INCLINATION":97.7709,"RA_OF_ASC_NODE":315.0688,"ARG_OF_PERICENTER":199.465,"MEAN_ANOMALY":160.6411,"EPHEMERIS_TYPE":0,"NORAD_CAT_ID":64586,"ELEMENT_SET_NO":999,"REV_AT_EPOCH":5874,"BSTAR":0.00021359654,"MEAN_MOTION_DOT":0.00002395,"MEAN_MOTION_DDOT":0},{"OBJECT_NAME":"LEMUR-2-HUBBLE-5","OBJECT_ID":"2025-135BT","EPOCH":"2026-07-19T05:38:21.768288","CLASSIFICATION_TYPE":"U","MEAN_MOTION":14.9421853,"ECCENTRICITY":0.00046264,"INCLINATION":97.7742,"RA_OF_ASC_NODE":314.4447,"ARG_OF_PERICENTER":219.0014,"MEAN_ANOMALY":141.0873,"EPHEMERIS_TYPE":0,"NORAD_CAT_ID":64840,"ELEMENT_SET_NO":999,"REV_AT_EPOCH":5869,"BSTAR":0.000039664541,"MEAN_MOTION_DOT":0.00000368,"MEAN_MOTION_DDOT":0},{"OBJECT_NAME":"LEMUR-2-KARENDARRELL","OBJECT_ID":"2025-135BU","EPOCH":"2026-07-19T01:32:27.337056","CLASSIFICATION_TYPE":"U","MEAN_MOTION":15.005305,"ECCENTRICITY":0.00127768,"INCLINATION":97.7722,"RA_OF_ASC_NODE":316.2334,"ARG_OF_PERICENTER":93.0297,"MEAN_ANOMALY":267.2389,"EPHEMERIS_TYPE":0,"NORAD_CAT_ID":64841,"ELEMENT_SET_NO":999,"REV_AT_EPOCH":5879,"BSTAR":0.00031496575,"MEAN_MOTION_DOT":0.00003917,"MEAN_MOTION_DDOT":0},{"OBJECT_NAME":"LEMUR-2-LUCILLE-ROSE","OBJECT_ID":"2025-135BV","EPOCH":"2026-07-19T05:42:21.884256","CLASSIFICATION_TYPE":"U","MEAN_MOTION":15.00515555,"ECCENTRICITY":0.00153193,"INCLINATION":97.7702,"RA_OF_ASC_NODE":316.4414,"ARG_OF_PERICENTER":177.028,"MEAN_ANOMALY":183.1037,"EPHEMERIS_TYPE":0,"NORAD_CAT_ID":65403,"ELEMENT_SET_NO":999,"REV_AT_EPOCH":5344,"BSTAR":0.00025696245,"MEAN_MOTION_DOT":0.00003185,"MEAN_MOTION_DDOT":0},{"OBJECT_NAME":"LEMUR-2-AFFIE-WAUWIE","OBJECT_ID":"2025-248C","EPOCH":"2026-07-19T06:59:21.872832","CLASSIFICATION_TYPE":"U","MEAN_MOTION":15.2836316,"ECCENTRICITY":0.00091591,"INCLINATION":45.3911,"RA_OF_ASC_NODE":300.8877,"ARG_OF_PERICENTER":273.5136,"MEAN_ANOMALY":86.4706,"EPHEMERIS_TYPE":0,"NORAD_CAT_ID":66295,"ELEMENT_SET_NO":999,"REV_AT_EPOCH":3950,"BSTAR":0.00044190814,"MEAN_MOTION_DOT":0.00012161,"MEAN_MOTION_DDOT":0},{"OBJECT_NAME":"OTTER SDM","OBJECT_ID":"2025-276N","EPOCH":"2026-07-19T04:17:20.798880","CLASSIFICATION_TYPE":"U","MEAN_MOTION":15.20082322,"ECCENTRICITY":0.00044924,"INCLINATION":97.4197,"RA_OF_ASC_NODE":273.1289,"ARG_OF_PERICENTER":235.5851,"MEAN_ANOMALY":124.496,"EPHEMERIS_TYPE":0,"NORAD_CAT_ID":66678,"ELEMENT_SET_NO":999,"REV_AT_EPOCH":3527,"BSTAR":0.00014288691,"MEAN_MOTION_DOT":0.00003017,"MEAN_MOTION_DDOT":0},{"OBJECT_NAME":"LEMUR-2-STAS-GORBUK","OBJECT_ID":"2025-276W","EPOCH":"2026-07-19T04:49:42.992256","CLASSIFICATION_TYPE":"U","MEAN_MOTION":15.19680654,"ECCENTRICITY":0.00038747,"INCLINATION":97.423,"RA_OF_ASC_NODE":273.2023,"ARG_OF_PERICENTER":228.924,"MEAN_ANOMALY":131.1661,"EPHEMERIS_TYPE":0,"NORAD_CAT_ID":66686,"ELEMENT_SET_NO":999,"REV_AT_EPOCH":3527,"BSTAR":0.00012718125,"MEAN_MOTION_DOT":0.00002646,"MEAN_MOTION_DDOT":0},{"OBJECT_NAME":"LEMUR-2-TEODOR","OBJECT_ID":"2025-276DG","EPOCH":"2026-07-19T03:35:40.780320","CLASSIFICATION_TYPE":"U","MEAN_MOTION":15.21360535,"ECCENTRICITY":0.00021679,"INCLINATION":97.4135,"RA_OF_ASC_NODE":273.4286,"ARG_OF_PERICENTER":84.8211,"MEAN_ANOMALY":275.3272,"EPHEMERIS_TYPE":0,"NORAD_CAT_ID":66768,"ELEMENT_SET_NO":999,"REV_AT_EPOCH":3530,"BSTAR":0.00013118075,"MEAN_MOTION_DOT":0.0000287,"MEAN_MOTION_DDOT":0},{"OBJECT_NAME":"LEMUR-2-LAILA","OBJECT_ID":"2025-276DQ","EPOCH":"2026-07-19T02:51:20.846592","CLASSIFICATION_TYPE":"U","MEAN_MOTION":15.21586921,"ECCENTRICITY":0.00028617,"INCLINATION":97.4158,"RA_OF_ASC_NODE":273.5394,"ARG_OF_PERICENTER":88.4325,"MEAN_ANOMALY":271.7239,"EPHEMERIS_TYPE":0,"NORAD_CAT_ID":66776,"ELEMENT_SET_NO":999,"REV_AT_EPOCH":3530,"BSTAR":0.00012826207,"MEAN_MOTION_DOT":0.00002824,"MEAN_MOTION_DDOT":0},{"OBJECT_NAME":"LEMUR-2-CELIJO-SB-PK","OBJECT_ID":"2025-276DW","EPOCH":"2026-07-19T04:28:41.704320","CLASSIFICATION_TYPE":"U","MEAN_MOTION":15.00308705,"ECCENTRICITY":0.00067658,"INCLINATION":97.5185,"RA_OF_ASC_NODE":269.9077,"ARG_OF_PERICENTER":54.7906,"MEAN_ANOMALY":305.3951,"EPHEMERIS_TYPE":0,"NORAD_CAT_ID":66781,"ELEMENT_SET_NO":999,"REV_AT_EPOCH":2742,"BSTAR":0.00023838815,"MEAN_MOTION_DOT":0.00002932,"MEAN_MOTION_DDOT":0},{"OBJECT_NAME":"LEMUR-2-FINNIAN","OBJECT_ID":"2025-276DX","EPOCH":"2026-07-19T03:44:36.683232","CLASSIFICATION_TYPE":"U","MEAN_MOTION":15.00640841,"ECCENTRICITY":0.00070705,"INCLINATION":97.5359,"RA_OF_ASC_NODE":270.154,"ARG_OF_PERICENTER":343.4542,"MEAN_ANOMALY":16.6451,"EPHEMERIS_TYPE":0,"NORAD_CAT_ID":66782,"ELEMENT_SET_NO":999,"REV_AT_EPOCH":2479,"BSTAR":0.00011279798,"MEAN_MOTION_DOT":0.00001369,"MEAN_MOTION_DDOT":0},{"OBJECT_NAME":"LEMUR-2-STARLIGHT","OBJECT_ID":"2025-276DY","EPOCH":"2026-07-19T03:21:28.483200","CLASSIFICATION_TYPE":"U","MEAN_MOTION":14.99384403,"ECCENTRICITY":0.00146552,"INCLINATION":97.5234,"RA_OF_ASC_NODE":269.6876,"ARG_OF_PERICENTER":35.4306,"MEAN_ANOMALY":324.7888,"EPHEMERIS_TYPE":0,"NORAD_CAT_ID":66783,"ELEMENT_SET_NO":999,"REV_AT_EPOCH":3498,"BSTAR":0.000303275,"MEAN_MOTION_DOT":0.00003662,"MEAN_MOTION_DDOT":0},{"OBJECT_NAME":"LEMUR-2-TARTIFLETTE","OBJECT_ID":"2025-276DZ","EPOCH":"2026-07-19T04:55:20.169984","CLASSIFICATION_TYPE":"U","MEAN_MOTION":14.99367086,"ECCENTRICITY":0.00138644,"INCLINATION":97.5232,"RA_OF_ASC_NODE":269.7584,"ARG_OF_PERICENTER":43.8497,"MEAN_ANOMALY":316.3825,"EPHEMERIS_TYPE":0,"NORAD_CAT_ID":66784,"ELEMENT_SET_NO":999,"REV_AT_EPOCH":3499,"BSTAR":0.00027905785,"MEAN_MOTION_DOT":0.00003363,"MEAN_MOTION_DDOT":0},{"OBJECT_NAME":"LEMUR-2-VUKASIN","OBJECT_ID":"2025-276EA","EPOCH":"2026-07-19T04:08:01.789152","CLASSIFICATION_TYPE":"U","MEAN_MOTION":15.00565379,"ECCENTRICITY":0.00024128,"INCLINATION":97.5207,"RA_OF_ASC_NODE":270.0917,"ARG_OF_PERICENTER":41.9946,"MEAN_ANOMALY":318.1463,"EPHEMERIS_TYPE":0,"NORAD_CAT_ID":66785,"ELEMENT_SET_NO":999,"REV_AT_EPOCH":3494,"BSTAR":0.00018146128,"MEAN_MOTION_DOT":0.00002233,"MEAN_MOTION_DDOT":0},{"OBJECT_NAME":"LEMUR-2-HOTSPUR-TOM","OBJECT_ID":"2025-276EB","EPOCH":"2026-07-19T03:11:33.252000","CLASSIFICATION_TYPE":"U","MEAN_MOTION":14.99264226,"ECCENTRICITY":0.00136534,"INCLINATION":97.5212,"RA_OF_ASC_NODE":269.6614,"ARG_OF_PERICENTER":35.7744,"MEAN_ANOMALY":324.4392,"EPHEMERIS_TYPE":0,"NORAD_CAT_ID":66786,"ELEMENT_SET_NO":999,"REV_AT_EPOCH":3491,"BSTAR":0.00024280969,"MEAN_MOTION_DOT":0.0000291,"MEAN_MOTION_DDOT":0}]}
